{
  "type": "FeatureCollection",
  "features": [
    {
      "type": "Feature",
      "properties": {
        "norad_id": 34121,
        "name": "COSMOS 2251 DEB",
        "group": "cosmos-2251-debris",
        "lat": -71.69600974698285,
        "lon": 36.75467827261149,
        "alt_km": 767.1757241382147,
        "timestamp": "2025-12-12T20:43:07.429514+00:00",
        "meta_object_name": "COSMOS 2251 DEB",
        "meta_object_id": "1993-036KS",
        "meta_epoch": "2025-12-12T07:25:55.380000",
        "meta_mean_motion": 13.91927211,
        "meta_eccentricity": 0.02402383,
        "meta_inclination": 73.9925,
        "meta_ra_of_asc_node": 97.9072,
        "meta_arg_of_pericenter": 303.4441,
        "meta_mean_anomaly": 83.579,
        "meta_ephemeris_type": 0,
        "meta_classification_type": "U",
        "meta_norad_cat_id": 34121,
        "meta_element_set_no": 999,
        "meta_rev_at_epoch": 85119,
        "meta_bstar": 0.0017645388,
        "meta_mean_motion_dot": 2.823e-05,
        "meta_mean_motion_ddot": 0,
        "tle_line1": "1 34121U 93036KS  25346.30966875  .00002823  00000+0  17645-2 0  9995",
        "tle_line2": "2 34121  73.9925  97.9072 0240238 303.4441  83.5790 13.91927211851192"
      },
      "geometry": {
        "type": "Point",
        "coordinates": [
          36.75467827261149,
          -71.69600974698285
        ]
      }
    },
    {
      "type": "Feature",
      "properties": {
        "norad_id": 34122,
        "name": "COSMOS 2251 DEB",
        "group": "cosmos-2251-debris",
        "lat": -21.829135306110015,
        "lon": -55.01842776212731,
        "alt_km": 740.8548976617649,
        "timestamp": "2025-12-12T20:43:07.429525+00:00",
        "meta_object_name": "COSMOS 2251 DEB",
        "meta_object_id": "1993-036KT",
        "meta_epoch": "2025-12-11T16:00:10.116864",
        "meta_mean_motion": 14.65026935,
        "meta_eccentricity": 0.00842746,
        "meta_inclination": 74.0358,
        "meta_ra_of_asc_node": 120.6982,
        "meta_arg_of_pericenter": 17.8752,
        "meta_mean_anomaly": 357.0036,
        "meta_ephemeris_type": 0,
        "meta_classification_type": "U",
        "meta_norad_cat_id": 34122,
        "meta_element_set_no": 999,
        "meta_rev_at_epoch": 88669,
        "meta_bstar": 0.0019073278,
        "meta_mean_motion_dot": 0.0001076,
        "meta_mean_motion_ddot": 0,
        "tle_line1": "1 34122U 93036KT  25345.66678376  .00010760  00000+0  19073-2 0  9996",
        "tle_line2": "2 34122  74.0358 120.6982 0084274  17.8752 357.0036 14.65026935886696"
      },
      "geometry": {
        "type": "Point",
        "coordinates": [
          -55.01842776212731,
          -21.829135306110015
        ]
      }
    },
    {
      "type": "Feature",
      "properties": {
        "norad_id": 34127,
        "name": "COSMOS 2251 DEB",
        "group": "cosmos-2251-debris",
        "lat": 72.30063183559501,
        "lon": 160.9551792115677,
        "alt_km": 846.9810524375498,
        "timestamp": "2025-12-12T20:43:07.429535+00:00",
        "meta_object_name": "COSMOS 2251 DEB",
        "meta_object_id": "1993-036KY",
        "meta_epoch": "2025-12-12T05:25:32.729664",
        "meta_mean_motion": 14.31538178,
        "meta_eccentricity": 0.0114934,
        "meta_inclination": 74.1792,
        "meta_ra_of_asc_node": 44.7917,
        "meta_arg_of_pericenter": 245.0245,
        "meta_mean_anomaly": 171.1744,
        "meta_ephemeris_type": 0,
        "meta_classification_type": "U",
        "meta_norad_cat_id": 34127,
        "meta_element_set_no": 999,
        "meta_rev_at_epoch": 86764,
        "meta_bstar": 0.002888484,
        "meta_mean_motion_dot": 8.242e-05,
        "meta_mean_motion_ddot": 0,
        "tle_line1": "1 34127U 93036KY  25346.22607326  .00008242  00000+0  28885-2 0  9994",
        "tle_line2": "2 34127  74.1792  44.7917 0114934 245.0245 171.1744 14.31538178867642"
      },
      "geometry": {
        "type": "Point",
        "coordinates": [
          160.9551792115677,
          72.30063183559501
        ]
      }
    },
    {
      "type": "Feature",
      "properties": {
        "norad_id": 34128,
        "name": "COSMOS 2251 DEB",
        "group": "cosmos-2251-debris",
        "lat": -23.728667163478168,
        "lon": -70.77455636713646,
        "alt_km": 563.2661941775796,
        "timestamp": "2025-12-12T20:43:07.429546+00:00",
        "meta_object_name": "COSMOS 2251 DEB",
        "meta_object_id": "1993-036KZ",
        "meta_epoch": "2025-12-12T06:58:38.581248",
        "meta_mean_motion": 15.01122722,
        "meta_eccentricity": 0.00260972,
        "meta_inclination": 73.9991,
        "meta_ra_of_asc_node": 297.6397,
        "meta_arg_of_pericenter": 50.058,
        "meta_mean_anomaly": 72.7494,
        "meta_ephemeris_type": 0,
        "meta_classification_type": "U",
        "meta_norad_cat_id": 34128,
        "meta_element_set_no": 999,
        "meta_rev_at_epoch": 89160,
        "meta_bstar": 0.0027353301,
        "meta_mean_motion_dot": 0.0003543,
        "meta_mean_motion_ddot": 0,
        "tle_line1": "1 34128U 93036KZ  25346.29072432  .00035430  00000+0  27353-2 0  9994",
        "tle_line2": "2 34128  73.9991 297.6397 0026097  50.0580  72.7494 15.01122722891603"
      },
      "geometry": {
        "type": "Point",
        "coordinates": [
          -70.77455636713646,
          -23.728667163478168
        ]
      }
    },
    {
      "type": "Feature",
      "properties": {
        "norad_id": 34129,
        "name": "COSMOS 2251 DEB",
        "group": "cosmos-2251-debris",
        "lat": -57.7834810097408,
        "lon": -173.6954524143747,
        "alt_km": 672.6492283701036,
        "timestamp": "2025-12-12T20:43:07.429556+00:00",
        "meta_object_name": "COSMOS 2251 DEB",
        "meta_object_id": "1993-036LA",
        "meta_epoch": "2025-12-12T06:36:46.821888",
        "meta_mean_motion": 14.75724159,
        "meta_eccentricity": 0.00329062,
        "meta_inclination": 74.0356,
        "meta_ra_of_asc_node": 340.4347,
        "meta_arg_of_pericenter": 62.0913,
        "meta_mean_anomaly": 298.3587,
        "meta_ephemeris_type": 0,
        "meta_classification_type": "U",
        "meta_norad_cat_id": 34129,
        "meta_element_set_no": 999,
        "meta_rev_at_epoch": 61291,
        "meta_bstar": 0.0021170437,
        "meta_mean_motion_dot": 0.00014612,
        "meta_mean_motion_ddot": 0,
        "tle_line1": "1 34129U 93036LA  25346.27554192  .00014612  00000+0  21170-2 0  9991",
        "tle_line2": "2 34129  74.0356 340.4347 0032906  62.0913 298.3587 14.75724159612918"
      },
      "geometry": {
        "type": "Point",
        "coordinates": [
          -173.6954524143747,
          -57.7834810097408
        ]
      }
    },
    {
      "type": "Feature",
      "properties": {
        "norad_id": 34136,
        "name": "COSMOS 2251 DEB",
        "group": "cosmos-2251-debris",
        "lat": 35.490066689224264,
        "lon": 54.17858737099751,
        "alt_km": 663.0972689949567,
        "timestamp": "2025-12-12T20:43:07.429567+00:00",
        "meta_object_name": "COSMOS 2251 DEB",
        "meta_object_id": "1993-036LH",
        "meta_epoch": "2025-12-12T06:14:00.321216",
        "meta_mean_motion": 14.80077678,
        "meta_eccentricity": 0.00858161,
        "meta_inclination": 74.021,
        "meta_ra_of_asc_node": 43.579,
        "meta_arg_of_pericenter": 166.6732,
        "meta_mean_anomaly": 256.7734,
        "meta_ephemeris_type": 0,
        "meta_classification_type": "U",
        "meta_norad_cat_id": 34136,
        "meta_element_set_no": 999,
        "meta_rev_at_epoch": 90003,
        "meta_bstar": 0.000746903,
        "meta_mean_motion_dot": 5.997e-05,
        "meta_mean_motion_ddot": 0,
        "tle_line1": "1 34136U 93036LH  25346.25972594  .00005997  00000+0  74690-3 0  9999",
        "tle_line2": "2 34136  74.0210  43.5790 0085816 166.6732 256.7734 14.80077678900034"
      },
      "geometry": {
        "type": "Point",
        "coordinates": [
          54.17858737099751,
          35.490066689224264
        ]
      }
    },
    {
      "type": "Feature",
      "properties": {
        "norad_id": 34139,
        "name": "COSMOS 2251 DEB",
        "group": "cosmos-2251-debris",
        "lat": 64.4789889133198,
        "lon": 36.97318149655891,
        "alt_km": 714.341418410957,
        "timestamp": "2025-12-12T20:43:07.429578+00:00",
        "meta_object_name": "COSMOS 2251 DEB",
        "meta_object_id": "1993-036LL",
        "meta_epoch": "2025-12-12T04:27:22.339872",
        "meta_mean_motion": 14.59054427,
        "meta_eccentricity": 0.00425713,
        "meta_inclination": 74.0306,
        "meta_ra_of_asc_node": 255.1192,
        "meta_arg_of_pericenter": 326.0171,
        "meta_mean_anomaly": 186.0941,
        "meta_ephemeris_type": 0,
        "meta_classification_type": "U",
        "meta_norad_cat_id": 34139,
        "meta_element_set_no": 999,
        "meta_rev_at_epoch": 88141,
        "meta_bstar": 0.0021786108,
        "meta_mean_motion_dot": 0.00010357,
        "meta_mean_motion_ddot": 0,
        "tle_line1": "1 34139U 93036LL  25346.18567523  .00010357  00000+0  21786-2 0  9999",
        "tle_line2": "2 34139  74.0306 255.1192 0042571 326.0171 186.0941 14.59054427881418"
      },
      "geometry": {
        "type": "Point",
        "coordinates": [
          36.97318149655891,
          64.4789889133198
        ]
      }
    }
  ]
}